OBJECT_NAME,OBJECT_ID,EPOCH,MEAN_MOTION,ECCENTRICITY,INCLINATION,RA_OF_ASC_NODE,ARG_OF_PERICENTER,MEAN_ANOMALY,EPHEMERIS_TYPE,CLASSIFICATION_TYPE,NORAD_CAT_ID,ELEMENT_SET_NO,REV_AT_EPOCH,BSTAR,MEAN_MOTION_DOT,MEAN_MOTION_DDOT
STARLINK-1548,2020-055AD,2022-05-17T00:12:33.960096,15.06386826,.0001591,53.0560,248.6073,60.4268,299.6879,0,U,46054,999,9858,-.28856E-4,-.711E-5,0
STARLINK-1554,2020-055AE,2022-05-16T17:29:09.521952,15.06397361,.0001607,53.0542,249.8754,67.0239,293.0919,0,U,46055,999,9908,.44496E-4,.381E-5,0
STARLINK-1561,2020-055AF,2022-05-16T16:25:29.263872,15.06359304,.000183,53.0554,250.0594,60.3693,299.7478,0,U,46056,999,9908,.41221E-3,.5857E-4,0
STARLINK-1564,2020-055AH,2022-05-16T11:54:46.849248,15.06394961,.0001262,53.0551,250.8962,81.4926,278.6206,0,U,46058,999,9851,.93712E-4,.1115E-4,0
STARLINK-1570,2020-055AJ,2022-05-16T16:52:00.827040,15.06395551,.0001321,53.0557,249.9786,73.2483,286.8651,0,U,46059,999,9903,-.83779E-5,-.406E-5,0
STARLINK-1572,2020-055AK,2022-05-16T19:57:47.102688,15.06397886,.0001491,53.0539,249.4000,57.9207,302.1927,0,U,46060,999,9906,.77931E-4,.879E-5,0
STARLINK-1573,2020-055AL,2022-05-16T16:36:05.544576,15.06397428,.0001652,53.0541,250.0362,60.8776,299.2378,0,U,46061,999,9907,.1566E-3,.2052E-4,0
STARLINK-1574,2020-055AM,2022-05-16T17:23:51.264096,15.06397879,.000166,53.0538,249.8819,53.2771,306.8370,0,U,46062,999,9904,.22931E-5,-.247E-5,0
STARLINK-1577,2020-055AN,2022-05-16T17:18:33.250752,15.06391608,.0001272,53.0554,249.9054,81.8390,278.2743,0,U,46063,999,9907,-.10494E-3,-.1844E-4,0
STARLINK-1583,2020-055AP,2022-05-16T16:30:46.392480,15.06396685,.0001491,53.0551,250.0508,54.5232,305.5896,0,U,46064,999,9907,.29964E-4,.165E-5,0
STARLINK-1515,2020-055AQ,2022-05-16T13:10:22.957248,15.06392922,.0001422,53.0558,230.6679,69.2440,290.8701,0,U,46065,999,9931,.12281E-3,.1548E-4,0
STARLINK-1525,2020-055AR,2022-05-16T22:50:16.669248,15.06396208,.0001671,53.0542,228.8702,52.3082,307.8058,0,U,46066,999,9885,-.11736E-3,-.2029E-4,0
STARLINK-1529,2020-055AS,2022-05-16T22:55:35.467968,15.06400316,.0001618,53.0553,228.8498,73.2141,286.9026,0,U,46067,999,9885,-.59626E-4,-.117E-4,0
STARLINK-1532,2020-055AT,2022-05-16T23:11:30.897312,15.06405225,.0001454,53.0539,228.7941,46.6973,313.4137,0,U,46068,999,9885,.17938E-3,.2392E-4,0
STARLINK-1533,2020-055AU,2022-05-16T23:32:44.439360,15.06403228,.0001733,53.0546,228.7265,64.8341,295.2828,0,U,46069,999,9886,.20637E-3,.2794E-4,0
STARLINK-1536,2020-055AV,2022-05-16T12:45:10.635840,15.06467176,.0000997,53.0547,230.7497,62.3628,297.7462,0,U,46070,999,9879,-.82131E-3,-.12516E-3,0
STARLINK-1538,2020-055AW,2022-05-16T22:44:59.544096,15.06390435,.0001661,53.0539,228.8652,51.7536,308.3603,0,U,46071,999,9885,.82271E-4,.944E-5,0
STARLINK-1539,2020-055AX,2022-05-16T15:23:04.767360,15.06388978,.0001799,53.0545,230.2666,39.4832,320.6288,0,U,46072,999,9933,.10379E-3,.1264E-4,0
STARLINK-1542,2020-055AY,2022-05-16T15:45:39.558240,15.06410692,.0001844,53.0543,230.1988,51.4740,308.6414,0,U,46073,999,9934,.2705E-3,.3751E-4,0
STARLINK-1549,2020-055AZ,2022-05-16T23:22:07.963392,15.06394647,.0001834,53.0545,228.7575,55.1344,304.9817,0,U,46074,999,9886,-.98041E-5,-.428E-5,0
STARLINK-1551,2020-055BA,2022-05-16T17:37:07.544640,15.06411028,.0001671,53.0532,229.8307,50.7924,309.3213,0,U,46075,999,9935,.53385E-3,.7681E-4,0
STARLINK-1552,2020-055BB,2022-05-16T23:00:54.189792,15.06395104,.0001872,53.0549,228.8385,44.8711,315.2429,0,U,46076,999,9885,.18019E-4,-.13E-6,0
STARLINK-1559,2020-055BC,2022-05-16T13:01:07.424256,15.06395259,.0001724,53.0574,230.7005,55.6524,304.4627,0,U,46077,999,9928,.13807E-3,.1775E-4,0
STARLINK-1563,2020-055BD,2022-05-16T12:29:16.860192,15.06397703,.0001896,53.0536,230.8113,51.4241,308.6917,0,U,46078,999,9879,.17713E-3,.2358E-4,0
STARLINK-1566,2020-055BE,2022-05-16T10:43:07.563648,15.06396303,.0001464,53.0547,231.1286,76.8546,283.2606,0,U,46079,999,9931,.24871E-3,.3425E-4,0
STARLINK-1568,2020-055BF,2022-05-16T16:06:53.368128,15.06397907,.0001532,53.0541,230.1072,59.1141,300.9998,0,U,46080,999,9932,.68159E-4,.734E-5,0
STARLINK-1571,2020-055BG,2022-05-16T23:16:49.966464,15.06391981,.0001383,53.0547,228.7731,57.8690,302.2433,0,U,46081,999,9885,.24706E-3,.34E-4,0
STARLINK-1578,2020-055BH,2022-05-16T12:39:53.297280,15.06395796,.0001585,53.0564,230.7675,70.1940,289.9220,0,U,46082,999,9932,.12576E-3,.1592E-4,0
STARLINK-1579,2020-055BJ,2022-05-16T15:08:31.324704,15.06391478,.0001589,53.0542,230.2905,70.1023,290.0137,0,U,46083,999,9933,-.66549E-4,-.1272E-4,0
STARLINK-1585,2020-057A,2022-05-16T20:42:53.911872,15.06399816,.0001867,53.0554,69.2527,51.4654,308.6502,0,U,46117,999,9641,.88423E-4,.1036E-4,0
STARLINK-1588,2020-057B,2022-05-17T03:18:19.966176,15.06385843,.0001897,53.0543,88.0196,42.8947,317.2190,0,U,46118,999,9683,.11468E-4,-.111E-5,0
STARLINK-1593,2020-057C,2022-05-17T03:02:24.293184,15.06393671,.0001999,53.0557,88.0819,59.5287,300.5899,0,U,46119,999,9683,.54047E-4,.523E-5,0
STARLINK-1601,2020-057D,2022-05-16T13:56:51.461088,15.06399054,.0002016,53.0550,90.5287,45.3179,314.7973,0,U,46120,999,9737,.14773E-4,-.62E-6,0
STARLINK-1602,2020-057E,2022-05-17T01:56:03.144480,15.06396260,.0001701,53.0577,68.2911,59.0609,301.0547,0,U,46121,999,9710,.21652E-4,.41E-6,0
STARLINK-1604,2020-057F,2022-05-16T18:11:38.000544,15.06397738,.0001686,53.0556,49.7190,55.2679,304.8469,0,U,46122,999,9793,-.50101E-4,-.1028E-4,0
STARLINK-1605,2020-057G,2022-05-16T11:28:14.707200,15.06391741,.0002009,53.0564,50.9911,47.8364,312.2795,0,U,46123,999,9729,.58327E-4,.587E-5,0
STARLINK-1614,2020-057H,2022-05-17T03:34:15.708288,15.06387322,.0001383,53.0553,47.9811,56.0209,304.0911,0,U,46124,999,9740,.30843E-4,.178E-5,0
STARLINK-1618,2020-057J,2022-05-16T20:45:32.715072,15.06402400,.0002013,53.0558,89.2483,55.9876,304.1304,0,U,46125,999,9739,.20787E-3,.2816E-4,0
STARLINK-1619,2020-057K,2022-05-17T02:30:33.997824,15.06390591,.0001493,53.0548,88.1795,60.4564,299.6574,0,U,46126,999,9683,.14334E-3,.1854E-4,0
STARLINK-1621,2020-057L,2022-05-17T02:17:17.515968,15.06395839,.0001897,53.0550,68.2102,52.3119,307.8041,0,U,46127,999,9711,.14031E-3,.1809E-4,0
STARLINK-1622,2020-057M,2022-05-16T18:59:23.415936,15.06400469,.0001466,53.0545,49.5827,64.2450,295.8690,0,U,46128,999,9668,.10661E-4,-.123E-5,0
STARLINK-1623,2020-057N,2022-05-17T03:55:29.889696,15.06381444,.0001675,53.0558,47.9261,58.7428,301.3724,0,U,46129,999,9740,-.11562E-3,-.2002E-4,0
STARLINK-1624,2020-057P,2022-05-17T03:07:43.302720,15.06383309,.0001872,53.0558,48.0555,53.6918,306.4243,0,U,46130,999,9739,-.41998E-4,-.907E-5,0
STARLINK-1625,2020-057Q,2022-05-16T19:28:35.169888,15.06400575,.000156,53.0548,69.4938,59.1332,300.9810,0,U,46131,999,9766,.16475E-3,.2173E-4,0
STARLINK-1630,2020-057R,2022-05-17T04:22:01.329312,15.06397866,.0002321,53.0553,87.8366,51.0340,309.0855,0,U,46132,999,9684,.61887E-4,.64E-5,0
STARLINK-1637,2020-057S,2022-05-16T18:48:46.511424,15.06394287,.0001712,53.0575,49.6053,51.6801,308.4342,0,U,46133,999,9793,-.21232E-4,-.598E-5,0
STARLINK-1638,2020-057T,2022-05-17T02:51:46.787328,15.06401869,.0001513,53.0567,48.1002,68.5034,291.6116,0,U,46134,999,9739,.10345E-3,.126E-4,0
STARLINK-1639,2020-057U,2022-05-16T11:17:36.732192,15.06396202,.0001725,53.0557,51.0195,57.4893,302.6263,0,U,46135,999,9663,.71172E-5,-.176E-5,0
STARLINK-1643,2020-057V,2022-05-16T18:50:07.155456,15.06386710,.0001697,53.0545,79.6047,50.2814,309.8324,0,U,46136,999,9626,-.27802E-4,-.695E-5,0
STARLINK-1586,2020-057W,2022-05-16T19:17:57.946560,15.06400685,.0002397,53.0573,69.5300,43.1391,316.9785,0,U,46137,999,9640,.97707E-4,.1174E-4,0
STARLINK-1590,2020-057X,2022-05-17T03:13:01.415424,15.06395508,.0002344,53.0554,88.0414,55.5619,304.5591,0,U,46138,999,9683,.93867E-5,-.142E-5,0
STARLINK-1594,2020-057Z,2022-05-17T03:50:11.089248,15.06391839,.0002017,53.0548,47.9190,43.2889,316.8258,0,U,46140,999,9740,.72931E-4,.805E-5,0
STARLINK-1596,2020-057AA,2022-05-17T03:18:19.895328,15.06394744,.0001507,53.0553,48.0178,42.6688,317.4418,0,U,46141,999,9739,-.97043E-4,-.1726E-4,0
STARLINK-1597,2020-057AB,2022-05-17T03:44:52.097856,15.06395943,.0002041,53.0552,87.9467,46.4267,313.6891,0,U,46142,999,9683,-.10645E-4,-.44E-5,0
STARLINK-1606,2020-057AD,2022-05-17T04:29:59.542080,15.06386457,.0001616,53.0565,67.8105,55.2497,304.8644,0,U,46144,999,9713,-.68489E-4,-.1301E-4,0
STARLINK-1608,2020-057AF,2022-05-17T04:00:47.895264,15.06389169,.0002019,53.0563,87.8829,45.5443,314.5711,0,U,46146,999,9684,.1365E-3,.1751E-4,0
STARLINK-1611,2020-057AG,2022-05-16T08:27:46.399104,15.06400120,.0002817,53.0556,91.5483,46.4123,313.7099,0,U,46147,999,9731,.80028E-4,.91E-5,0
STARLINK-1616,2020-057AH,2022-05-16T19:44:30.811776,15.06399447,.0001892,53.0570,69.4441,50.9376,309.1781,0,U,46148,999,9640,-.54196E-4,-.1089E-4,0
STARLINK-1620,2020-057AJ,2022-05-17T04:03:26.637984,15.06391361,.0001744,53.0553,67.8941,56.3521,303.7634,0,U,46149,999,9712,.15729E-4,-.47E-6,0
STARLINK-1629,2020-057AK,2022-05-17T03:55:29.364384,15.06388558,.000187,53.0549,87.9038,43.1209,316.9926,0,U,46150,999,9684,.42085E-4,.345E-5,0
STARLINK-1631,2020-057AL,2022-05-16T19:23:17.022624,15.06397828,.000162,53.0554,69.5025,66.5709,293.5451,0,U,46151,999,9640,.14724E-3,.1912E-4,0
STARLINK-1634,2020-057AM,2022-05-17T02:57:05.942016,15.06396471,.0001668,53.0551,88.0973,53.4248,306.6894,0,U,46152,999,9683,.20663E-3,.2797E-4,0
STARLINK-1636,2020-057AN,2022-05-17T02:11:58.677504,15.06392900,.0001725,53.0566,68.2465,58.0716,302.0441,0,U,46153,999,9710,-.95424E-4,-.1702E-4,0
STARLINK-1642,2020-057AP,2022-05-17T04:02:07.129248,15.06386502,.0001669,53.0553,77.9025,58.0911,302.0240,0,U,46154,999,9697,-.11653E-3,-.2016E-4,0
STARLINK-1667,2020-057AQ,2022-05-17T03:02:25.141632,15.06386264,.0001743,53.0575,48.0675,56.3505,303.7650,0,U,46155,999,9739,-.17689E-4,-.545E-5,0
STARLINK-1545,2020-057AR,2022-05-17T04:24:41.245344,15.06386859,.0001704,53.0571,67.8067,47.2059,312.9073,0,U,46156,999,9713,-.68559E-4,-.1302E-4,0
